J009S   11.32  0.15 J923P 252.05400  280.39375  358.03369    3.00673  0.1017659  0.08154685   5.2666111    FO 250222    11   4   30 days 0.63         Find_Orb   0000 Jupiter IX = Sinope         19920325
